GPS BIIA-23 (PRN 18)    
1 22877U 93068A   18137.43025090 -.00000013  00000-0  00000+0 0  9999
2 22877  54.4070  84.7665 0143037  74.4813  76.1320  2.00565157179938
GPS BIIR-2  (PRN 13)    
1 24876U 97035A   18137.11523898  .00000040  00000-0  00000+0 0  9991
2 24876  55.4907 213.9868 0031756  90.8572 269.5832  2.00565080152525
GPS BIIR-3  (PRN 11)    
1 25933U 99055A   18137.43356748 -.00000048  00000-0  00000+0 0  9992
2 25933  51.8678  63.0306 0166134 100.9635  54.2288  2.00567721136359
GPS BIIR-4  (PRN 20)    
1 26360U 00025A   18137.42408078  .00000058  00000-0  00000+0 0  9999
2 26360  53.1928 140.9474 0040402 112.6345 101.3783  2.00426737132031
GPS BIIR-5  (PRN 28)    
1 26407U 00040A   18137.43831852 -.00000046  00000-0  00000+0 0  9997
2 26407  56.4965 332.0957 0196945 272.8893 272.9614  2.00563270130716
GPS BIIR-6  (PRN 14)    
1 26605U 00071A   18137.38080170  .00000040  00000-0  00000+0 0  9997
2 26605  55.0636 211.5802 0099923 248.4705 158.9011  2.00553050128317
GPS BIIR-8  (PRN 16)    
1 27663U 03005A   18137.26485112 -.00000045  00000-0  00000+0 0  9990
2 27663  56.5613 331.8588 0099278  28.1475 151.6242  2.00568793112072
GPS BIIR-9  (PRN 21)    
1 27704U 03010A   18136.95111821 -.00000015  00000-0  00000+0 0  9997
2 27704  54.0768  84.3826 0246717 270.6583   2.5130  2.00559281110871
GPS BIIR-10 (PRN 22)    
1 28129U 03058A   18137.30463382  .00000060  00000-0  00000+0 0  9992
2 28129  53.0057 143.8146 0076078 271.5324  87.6188  2.00546791105573
GPS BIIR-11 (PRN 19)    
1 28190U 04009A   18137.22401116 -.00000065  00000-0  00000+0 0  9991
2 28190  56.1600  32.7231 0096584  67.1154 231.7038  2.00559219103757
GPS BIIR-12 (PRN 23)    
1 28361U 04023A   18137.47520705  .00000042  00000-0  00000+0 0  9994
2 28361  54.0627 206.3476 0126413 225.1834 173.0518  2.00548632101845
GPS BIIR-13 (PRN 02)    
1 28474U 04045A   18137.28595712 -.00000015  00000-0  00000+0 0  9993
2 28474  54.4465  83.9701 0181249 253.7489   6.7114  2.00555880 99208
GPS BIIRM-1 (PRN 17)    
1 28874U 05038A   18137.22382484 -.00000065  00000-0  00000+0 0  9999
2 28874  56.3026  30.0294 0125795 258.4651  60.0292  2.00577327 92600
GPS BIIRM-2 (PRN 31)    
1 29486U 06042A   18137.42586036 -.00000009  00000-0  00000+0 0  9994
2 29486  55.1976 268.9006 0087808 351.1481  39.8299  2.00565126 85324
GPS BIIRM-3 (PRN 12)    
1 29601U 06052A   18136.82977852 -.00000044  00000-0  00000+0 0  9996
2 29601  56.5370 330.7929 0070054  54.9125 305.7607  2.00573453 84224
GPS BIIRM-4 (PRN 15)    
1 32260U 07047A   18136.64836807  .00000051  00000-0  00000+0 0  9997
2 32260  53.1871 202.4314 0100905  37.7744 323.0186  2.00555403 77600
GPS BIIRM-5 (PRN 29)    
1 32384U 07062A   18137.35369081 -.00000065  00000-0  00000+0 0  9991
2 32384  56.3757  30.6308 0005597  52.3127 231.3613  2.00561450 76343
GPS BIIRM-6 (PRN 07)    
1 32711U 08012A   18137.05898296 -.00000010  00000-0  00000+0 0  9993
2 32711  54.9312 268.2018 0117207 215.8000 143.3955  2.00564282 74528
GPS BIIRM-8 (PRN 05)    
1 35752U 09043A   18137.23448359  .00000065  00000-0  00000+0 0  9996
2 35752  54.3131 145.9662 0052208  32.8022 124.4949  2.00559823 64117
GPS BIIF-1  (PRN 25)    
1 36585U 10022A   18137.13749271 -.00000044  00000-0  00000+0 0  9994
2 36585  55.8291 327.3645 0073133  47.8785 141.3379  2.00566974 58353
GPS BIIF-2  (PRN 01)    
1 37753U 11036A   18137.49072382 -.00000007  00000-0  00000+0 0  9998
2 37753  55.6467  87.4517 0076273  34.4491 136.8177  2.00564018 50040
GPS BIIF-3  (PRN 24)    
1 38833U 12053A   18136.74153066 -.00000010  00000-0  00000+0 0  9998
2 38833  53.9609 264.8027 0068157  29.6122 330.7582  2.00566209 41101
GPS BIIF-4  (PRN 27)    
1 39166U 13023A   18137.09694800 -.00000066  00000-0  00000+0 0  9992
2 39166  56.0006  26.9405 0058383  21.6814 338.6114  2.00562777 36640
GPS BIIF-5  (PRN 30)    
1 39533U 14008A   18137.09583817 -.00000012  00000-0  00000+0 0  9990
2 39533  54.1065 270.1332 0034052 186.7313 173.2067  2.00555578 31004
GPS BIIF-6  (PRN 06)    
1 39741U 14026A   18136.87761640 -.00000008  00000-0  00000+0 0  9993
2 39741  55.6301  86.9988 0013962 293.4645  66.3563  2.00569199 29289
GPS BIIF-7  (PRN 09)    
1 40105U 14045A   18136.97034854  .00000047  00000-0  00000+0 0  9993
2 40105  54.5883 206.4560 0007409 111.5360 248.6277  2.00569080 27730
GPS BIIF-8  (PRN 03)    
1 40294U 14068A   18137.33821315  .00000066  00000-0  00000+0 0  9995
2 40294  55.0638 147.2046 0012860  14.8919 345.1758  2.00553464 25965
GPS BIIF-9  (PRN 26)    
1 40534U 15013A   18136.47771946 -.00000044  00000-0  00000+0 0  9998
2 40534  54.7720 326.1444 0027781   2.3508 357.6724  2.00565484 23014
GPS BIIF-10  (PRN 08)   
1 40730U 15033A   18137.14198007 -.00000067  00000-0  00000+0 0  9999
2 40730  55.5314  26.4590 0035924 331.2636  28.5854  2.00576307 20781
GPS BIIF-11  (PRN 10)   
1 41019U 15062A   18137.18976799  .00000067  00000-0  00000+0 0  9997
2 41019  55.0693 147.0122 0036174 206.0808 153.7669  2.00564310 18600
GPS BIIF-12  (PRN 32)   
1 41328U 16007A   18137.27729887  .00000045  00000-0  00000+0 0  9990
2 41328  54.8394 206.7251 0022329 217.5828 142.3450  2.00564247 16665
